{"fetched_at":"2026-07-05T17:36:07.652Z","source":"https://celestrak.org/NORAD/elements/gp.php?GROUP=kuiper&FORMAT=JSON","constellation":"kuiper","records":[{"OBJECT_NAME":"KUIPER-00062","OBJECT_ID":"2025-134Y","EPOCH":"2026-07-04T09:24:35.695584","CLASSIFICATION_TYPE":"U","MEAN_MOTION":14.79928134,"ECCENTRICITY":0.00006928,"INCLINATION":51.8982,"RA_OF_ASC_NODE":74.5219,"ARG_OF_PERICENTER":111.1367,"MEAN_ANOMALY":248.967,"EPHEMERIS_TYPE":0,"NORAD_CAT_ID":64522,"ELEMENT_SET_NO":999,"REV_AT_EPOCH":5739,"BSTAR":0.0001880396,"MEAN_MOTION_DOT":0.00001212,"MEAN_MOTION_DDOT":0},{"OBJECT_NAME":"KUIPER-00063","OBJECT_ID":"2025-134Z","EPOCH":"2026-07-04T17:19:09.917184","CLASSIFICATION_TYPE":"U","MEAN_MOTION":14.79933659,"ECCENTRICITY":0.00010656,"INCLINATION":51.9005,"RA_OF_ASC_NODE":80.612,"ARG_OF_PERICENTER":106.2753,"MEAN_ANOMALY":253.8326,"EPHEMERIS_TYPE":0,"NORAD_CAT_ID":64523,"ELEMENT_SET_NO":999,"REV_AT_EPOCH":5733,"BSTAR":0.00044377713,"MEAN_MOTION_DOT":0.00003163,"MEAN_MOTION_DDOT":0},{"OBJECT_NAME":"KUIPER-00064","OBJECT_ID":"2025-134AA","EPOCH":"2026-07-05T01:29:15.239616","CLASSIFICATION_TYPE":"U","MEAN_MOTION":14.79934439,"ECCENTRICITY":0.00009437,"INCLINATION":51.9027,"RA_OF_ASC_NODE":76.5335,"ARG_OF_PERICENTER":83.1251,"MEAN_ANOMALY":276.9818,"EPHEMERIS_TYPE":0,"NORAD_CAT_ID":64524,"ELEMENT_SET_NO":999,"REV_AT_EPOCH":5742,"BSTAR":0.00038582557,"MEAN_MOTION_DOT":0.00002721,"MEAN_MOTION_DDOT":0},{"OBJECT_NAME":"KUIPER-00065","OBJECT_ID":"2025-134AB","EPOCH":"2026-07-04T10:46:19.439040","CLASSIFICATION_TYPE":"U","MEAN_MOTION":14.7993541,"ECCENTRICITY":0.00007289,"INCLINATION":51.9016,"RA_OF_ASC_NODE":84.4128,"ARG_OF_PERICENTER":101.1849,"MEAN_ANOMALY":258.9196,"EPHEMERIS_TYPE":0,"NORAD_CAT_ID":64525,"ELEMENT_SET_NO":999,"REV_AT_EPOCH":5724,"BSTAR":0.00055057436,"MEAN_MOTION_DOT":0.00003979,"MEAN_MOTION_DDOT":0},{"OBJECT_NAME":"KUIPER-00066","OBJECT_ID":"2025-134AC","EPOCH":"2026-07-04T22:55:26.489280","CLASSIFICATION_TYPE":"U","MEAN_MOTION":14.79934712,"ECCENTRICITY":0.00006485,"INCLINATION":51.9016,"RA_OF_ASC_NODE":19.4537,"ARG_OF_PERICENTER":105.2952,"MEAN_ANOMALY":254.8082,"EPHEMERIS_TYPE":0,"NORAD_CAT_ID":64526,"ELEMENT_SET_NO":999,"REV_AT_EPOCH":5821,"BSTAR":0.00057506776,"MEAN_MOTION_DOT":0.00004166,"MEAN_MOTION_DDOT":0},{"OBJECT_NAME":"KUIPER-00069","OBJECT_ID":"2025-151A","EPOCH":"2026-07-04T12:58:40.303200","CLASSIFICATION_TYPE":"U","MEAN_MOTION":14.79934535,"ECCENTRICITY":0.00008071,"INCLINATION":51.9009,"RA_OF_ASC_NODE":123.9271,"ARG_OF_PERICENTER":98.3996,"MEAN_ANOMALY":261.7058,"EPHEMERIS_TYPE":0,"NORAD_CAT_ID":64816,"ELEMENT_SET_NO":999,"REV_AT_EPOCH":5406,"BSTAR":0.0004867521,"MEAN_MOTION_DOT":0.00003492,"MEAN_MOTION_DDOT":0},{"OBJECT_NAME":"KUIPER-00070","OBJECT_ID":"2025-151B","EPOCH":"2026-07-04T14:45:41.252256","CLASSIFICATION_TYPE":"U","MEAN_MOTION":14.79932767,"ECCENTRICITY":0.00007636,"INCLINATION":51.8956,"RA_OF_ASC_NODE":148.5109,"ARG_OF_PERICENTER":81.8705,"MEAN_ANOMALY":278.2344,"EPHEMERIS_TYPE":0,"NORAD_CAT_ID":64817,"ELEMENT_SET_NO":999,"REV_AT_EPOCH":5373,"BSTAR":0.0003639187,"MEAN_MOTION_DOT":0.00002554,"MEAN_MOTION_DDOT":0},{"OBJECT_NAME":"KUIPER-00071","OBJECT_ID":"2025-151C","EPOCH":"2026-07-04T21:18:26.684640","CLASSIFICATION_TYPE":"U","MEAN_MOTION":14.7990766,"ECCENTRICITY":0.00007842,"INCLINATION":51.8984,"RA_OF_ASC_NODE":144.8405,"ARG_OF_PERICENTER":88.775,"MEAN_ANOMALY":271.3302,"EPHEMERIS_TYPE":0,"NORAD_CAT_ID":64818,"ELEMENT_SET_NO":999,"REV_AT_EPOCH":5262,"BSTAR":0.00068496596,"MEAN_MOTION_DOT":0.00005001,"MEAN_MOTION_DDOT":0},{"OBJECT_NAME":"KUIPER-00072","OBJECT_ID":"2025-151D","EPOCH":"2026-07-05T00:15:24.246720","CLASSIFICATION_TYPE":"U","MEAN_MOTION":14.79914832,"ECCENTRICITY":0.00007596,"INCLINATION":51.8965,"RA_OF_ASC_NODE":124.2462,"ARG_OF_PERICENTER":62.8229,"MEAN_ANOMALY":297.2811,"EPHEMERIS_TYPE":0,"NORAD_CAT_ID":64819,"ELEMENT_SET_NO":999,"REV_AT_EPOCH":5292,"BSTAR":0.0008248974,"MEAN_MOTION_DOT":0.0000607,"MEAN_MOTION_DDOT":0},{"OBJECT_NAME":"KUIPER-00073","OBJECT_ID":"2025-151E","EPOCH":"2026-07-04T22:07:07.625856","CLASSIFICATION_TYPE":"U","MEAN_MOTION":14.79928791,"ECCENTRICITY":0.00015869,"INCLINATION":51.8994,"RA_OF_ASC_NODE":144.6775,"ARG_OF_PERICENTER":73.1372,"MEAN_ANOMALY":286.9764,"EPHEMERIS_TYPE":0,"NORAD_CAT_ID":64820,"ELEMENT_SET_NO":999,"REV_AT_EPOCH":5381,"BSTAR":-0.0012529031,"MEAN_MOTION_DOT":-0.00009758,"MEAN_MOTION_DDOT":0},{"OBJECT_NAME":"KUIPER-00074","OBJECT_ID":"2025-151F","EPOCH":"2026-07-05T06:00:04.999968","CLASSIFICATION_TYPE":"U","MEAN_MOTION":15.95929421,"ECCENTRICITY":0.00019597,"INCLINATION":51.8784,"RA_OF_ASC_NODE":50.4141,"ARG_OF_PERICENTER":164.9573,"MEAN_ANOMALY":287.372,"EPHEMERIS_TYPE":0,"NORAD_CAT_ID":64821,"ELEMENT_SET_NO":999,"REV_AT_EPOCH":591,"BSTAR":0.00041506958,"MEAN_MOTION_DOT":0.00170793,"MEAN_MOTION_DDOT":0.000022667379},{"OBJECT_NAME":"KUIPER-00075","OBJECT_ID":"2025-151G","EPOCH":"2026-07-04T21:54:04.344192","CLASSIFICATION_TYPE":"U","MEAN_MOTION":15.4518498,"ECCENTRICITY":0.00033006,"INCLINATION":51.8684,"RA_OF_ASC_NODE":9.7319,"ARG_OF_PERICENTER":333.6107,"MEAN_ANOMALY":26.4714,"EPHEMERIS_TYPE":0,"NORAD_CAT_ID":64822,"ELEMENT_SET_NO":999,"REV_AT_EPOCH":5450,"BSTAR":0.0013454303,"MEAN_MOTION_DOT":0.0006505,"MEAN_MOTION_DDOT":0},{"OBJECT_NAME":"KUIPER-00076","OBJECT_ID":"2025-151H","EPOCH":"2026-07-04T20:45:27.912960","CLASSIFICATION_TYPE":"U","MEAN_MOTION":14.79939922,"ECCENTRICITY":0.00007961,"INCLINATION":51.9007,"RA_OF_ASC_NODE":134.9478,"ARG_OF_PERICENTER":77.2684,"MEAN_ANOMALY":282.8367,"EPHEMERIS_TYPE":0,"NORAD_CAT_ID":64823,"ELEMENT_SET_NO":999,"REV_AT_EPOCH":5276,"BSTAR":0.00079353674,"MEAN_MOTION_DOT":0.00005834,"MEAN_MOTION_DDOT":0},{"OBJECT_NAME":"KUIPER-00077","OBJECT_ID":"2025-151J","EPOCH":"2026-07-04T14:08:43.658880","CLASSIFICATION_TYPE":"U","MEAN_MOTION":14.79932565,"ECCENTRICITY":0.00008978,"INCLINATION":51.8997,"RA_OF_ASC_NODE":141.1843,"ARG_OF_PERICENTER":88.2854,"MEAN_ANOMALY":271.8211,"EPHEMERIS_TYPE":0,"NORAD_CAT_ID":64824,"ELEMENT_SET_NO":999,"REV_AT_EPOCH":5265,"BSTAR":0.00055195246,"MEAN_MOTION_DOT":0.00003989,"MEAN_MOTION_DDOT":0},{"OBJECT_NAME":"KUIPER-00078","OBJECT_ID":"2025-151K","EPOCH":"2026-07-04T21:30:11.575584","CLASSIFICATION_TYPE":"U","MEAN_MOTION":14.79932155,"ECCENTRICITY":0.00007741,"INCLINATION":51.8995,"RA_OF_ASC_NODE":137.3063,"ARG_OF_PERICENTER":90.2396,"MEAN_ANOMALY":269.8655,"EPHEMERIS_TYPE":0,"NORAD_CAT_ID":64825,"ELEMENT_SET_NO":999,"REV_AT_EPOCH":5273,"BSTAR":0.00075494803,"MEAN_MOTION_DOT":0.00005539,"MEAN_MOTION_DDOT":0},{"OBJECT_NAME":"KUIPER-00079","OBJECT_ID":"2025-151L","EPOCH":"2026-07-04T14:04:49.720512","CLASSIFICATION_TYPE":"U","MEAN_MOTION":14.7993384,"ECCENTRICITY":0.00006593,"INCLINATION":51.8974,"RA_OF_ASC_NODE":143.6366,"ARG_OF_PERICENTER":80.7642,"MEAN_ANOMALY":279.3394,"EPHEMERIS_TYPE":0,"NORAD_CAT_ID":64826,"ELEMENT_SET_NO":999,"REV_AT_EPOCH":5381,"BSTAR":0.00058004603,"MEAN_MOTION_DOT":0.00004204,"MEAN_MOTION_DDOT":0}]}
