KUIPER-00062            
1 64522U 25134Y   26185.39207981  .00001212  00000+0  18804-3 0  9994
2 64522  51.8982  74.5219 0000692 111.1367 248.9670 14.79928134 57397
KUIPER-00063            
1 64523U 25134Z   26185.72164256  .00003163  00000+0  44378-3 0  9991
2 64523  51.9005  80.6120 0001065 106.2753 253.8326 14.79933659 57338
KUIPER-00064            
1 64524U 25134AA  26186.06198194  .00002721  00000+0  38583-3 0  9998
2 64524  51.9027  76.5335 0000943  83.1251 276.9818 14.79934439 57424
KUIPER-00065            
1 64525U 25134AB  26185.44883610  .00003979  00000+0  55057-3 0  9995
2 64525  51.9016  84.4128 0000728 101.1849 258.9196 14.79935410 57245
KUIPER-00066            
1 64526U 25134AC  26185.95516770  .00004166  00000+0  57507-3 0  9993
2 64526  51.9016  19.4537 0000648 105.2952 254.8082 14.79934712 58210
KUIPER-00069            
1 64816U 25151A   26185.54074425  .00003492  00000+0  48675-3 0  9992
2 64816  51.9009 123.9271 0000807  98.3996 261.7058 14.79934535 54069
KUIPER-00070            
1 64817U 25151B   26185.61506079  .00002554  00000+0  36392-3 0  9997
2 64817  51.8956 148.5109 0000763  81.8705 278.2344 14.79932767 53738
KUIPER-00071            
1 64818U 25151C   26185.88780885  .00005001  00000+0  68497-3 0  9997
2 64818  51.8984 144.8405 0000784  88.7750 271.3302 14.79907660 52626
KUIPER-00072            
1 64819U 25151D   26186.01069730  .00006070  00000+0  82490-3 0  9999
2 64819  51.8965 124.2462 0000759  62.8229 297.2811 14.79914832 52921
KUIPER-00073            
1 64820U 25151E   26185.92161604 -.00009758  00000+0 -12529-2 0  9996
2 64820  51.8994 144.6775 0001586  73.1372 286.9764 14.79928791 53811
KUIPER-00074            
1 64821U 25151F   26186.25005787  .00170793  22667-4  41507-3 0  9996
2 64821  51.8784  50.4141 0001959 164.9573 287.3720 15.95929421  5911
KUIPER-00075            
1 64822U 25151G   26185.91255028  .00065050  00000+0  13454-2 0  9994
2 64822  51.8684   9.7319 0003300 333.6107  26.4714 15.45184980 54507
KUIPER-00076            
1 64823U 25151H   26185.86490640  .00005834  00000+0  79354-3 0  9996
2 64823  51.9007 134.9478 0000796  77.2684 282.8367 14.79939922 52760
KUIPER-00077            
1 64824U 25151J   26185.58939420  .00003989  00000+0  55195-3 0  9996
2 64824  51.8997 141.1843 0000897  88.2854 271.8211 14.79932565 52657
KUIPER-00078            
1 64825U 25151K   26185.89596731  .00005539  00000+0  75495-3 0  9993
2 64825  51.8995 137.3063 0000774  90.2396 269.8655 14.79932155 52738
KUIPER-00079            
1 64826U 25151L   26185.58668658  .00004204  00000+0  58005-3 0  9994
2 64826  51.8974 143.6366 0000659  80.7642 279.3394 14.79933840 53810
